start=new Date('2022-09-08T00:00:00.000Z').valueOf();
sats=[{"OBJECT_NAME":"STARLINK-3511","SEMIMAJOR_AXIS":"6917.946","RA_OF_ASC_NODE":"289.7668","TIME_SYSTEM":"UTC","REV_AT_EPOCH":"130","MEAN_MOTION":"15.08818690","ECCENTRICITY":"0.00018570","ARG_OF_PERICENTER":"50.4698","EPHEMERIS_TYPE":"0","NORAD_CAT_ID":"51752","PERIAPSIS":"538.526","MEAN_MOTION_DDOT":"0.0000000000000","SITE":"AFETR","PERIOD":"95.439","COUNTRY_CODE":"US","APOAPSIS":"541.095","ELEMENT_SET_NO":"999","LAUNCH_DATE":"2022-02-21","TLE_LINE2":"2 51752  53.2160 289.7668 0001857  50.4698 222.9834 15.08818690  1308","DECAY_DATE":null,"RCS_SIZE":"MEDIUM","CLASSIFICATION_TYPE":"U","MEAN_MOTION_DOT":"0.00030921","GP_ID":"212010396","BSTAR":"0.00195350000000","OBJECT_ID":"2022-016AQ","INCLINATION":"53.2160","OBJECT_TYPE":"PAYLOAD","FILE":"3563022","TLE_LINE1":"1 51752U 22016AQ  22250.91667824  .00030921  00000-0  19535-2 0  9995","CENTER_NAME":"EARTH","EPOCH":"2022-09-07T22:00:00.999936","MEAN_ELEMENT_THEORY":"SGP4","MEAN_ANOMALY":"222.9834","REF_FRAME":"TEME"},{"BSTAR":"0.00190210000000","INCLINATION":"53.2169","OBJECT_ID":"2022-016AR","OBJECT_TYPE":"PAYLOAD","FILE":"3563022","TLE_LINE1":"1 51753U 22016AR  22250.91667824  .00030096  00000-0  19021-2 0  9999","CENTER_NAME":"EARTH","EPOCH":"2022-09-07T22:00:00.999936","MEAN_ELEMENT_THEORY":"SGP4","MEAN_ANOMALY":"189.9382","REF_FRAME":"TEME","SEMIMAJOR_AXIS":"6917.944","RA_OF_ASC_NODE":"289.7635","OBJECT_NAME":"STARLINK-3507","REV_AT_EPOCH":"130","TIME_SYSTEM":"UTC","ECCENTRICITY":"0.00015750","MEAN_MOTION":"15.08819110","ARG_OF_PERICENTER":"43.5284","EPHEMERIS_TYPE":"0","MEAN_MOTION_DDOT":"0.0000000000000","PERIAPSIS":"538.720","NORAD_CAT_ID":"51753","COUNTRY_CODE":"US","APOAPSIS":"540.899","ELEMENT_SET_NO":"999","PERIOD":"95.439","SITE":"AFETR","LAUNCH_DATE":"2022-02-21","DECAY_DATE":null,"TLE_LINE2":"2 51753  53.2169 289.7635 0001575  43.5284 189.9382 15.08819110  1301","RCS_SIZE":"LARGE","CLASSIFICATION_TYPE":"U","MEAN_MOTION_DOT":"0.00030096","GP_ID":"212011646"},{"ELEMENT_SET_NO":"999","COUNTRY_CODE":"US","APOAPSIS":"541.237","SITE":"AFETR","PERIOD":"95.438","MEAN_MOTION_DDOT":"0.0000000000000","NORAD_CAT_ID":"51754","PERIAPSIS":"538.333","MEAN_MOTION_DOT":"0.00032294","GP_ID":"212011398","CLASSIFICATION_TYPE":"U","TLE_LINE2":"2 51754  53.2164 289.7579 0002099  44.6561 263.5813 15.08827060  1307","DECAY_DATE":null,"RCS_SIZE":"LARGE","LAUNCH_DATE":"2022-02-21","ECCENTRICITY":"0.00020990","MEAN_MOTION":"15.08827060","TIME_SYSTEM":"UTC","REV_AT_EPOCH":"130","RA_OF_ASC_NODE":"289.7579","SEMIMAJOR_AXIS":"6917.920","OBJECT_NAME":"STARLINK-3457","EPHEMERIS_TYPE":"0","ARG_OF_PERICENTER":"44.6561","TLE_LINE1":"1 51754U 22016AS  22250.91667824  .00032294  00000-0  20386-2 0  9998","FILE":"3563022","REF_FRAME":"TEME","MEAN_ANOMALY":"263.5813","MEAN_ELEMENT_THEORY":"SGP4","CENTER_NAME":"EARTH","EPOCH":"2022-09-07T22:00:00.999936","INCLINATION":"53.2164","OBJECT_ID":"2022-016AS","BSTAR":"0.00203860000000","OBJECT_TYPE":"PAYLOAD"},{"TLE_LINE1":"1 51755U 22016AT  22250.91667824  .00032009  00000-0  20211-2 0  9990","FILE":"3563022","REF_FRAME":"TEME","MEAN_ANOMALY":"249.4510","MEAN_ELEMENT_THEORY":"SGP4","EPOCH":"2022-09-07T22:00:00.999936","CENTER_NAME":"EARTH","INCLINATION":"53.2168","OBJECT_ID":"2022-016AT","BSTAR":"0.00202110000000","OBJECT_TYPE":"PAYLOAD","COUNTRY_CODE":"US","APOAPSIS":"540.991","ELEMENT_SET_NO":"999","SITE":"AFETR","PERIOD":"95.439","MEAN_MOTION_DDOT":"0.0000000000000","NORAD_CAT_ID":"51755","PERIAPSIS":"538.607","MEAN_MOTION_DOT":"0.00032009","GP_ID":"212010645","CLASSIFICATION_TYPE":"U","RCS_SIZE":"LARGE","TLE_LINE2":"2 51755  53.2168 289.7622 0001723  44.0309 249.4510 15.08822409  1307","DECAY_DATE":null,"LAUNCH_DATE":"2022-02-21","ECCENTRICITY":"0.00017230","MEAN_MOTION":"15.08822409","REV_AT_EPOCH":"130","TIME_SYSTEM":"UTC","SEMIMAJOR_AXIS":"6917.934","RA_OF_ASC_NODE":"289.7622","OBJECT_NAME":"STARLINK-3460","EPHEMERIS_TYPE":"0","ARG_OF_PERICENTER":"44.0309"},{"OBJECT_NAME":"STARLINK-3513","SEMIMAJOR_AXIS":"6917.988","RA_OF_ASC_NODE":"289.7575","TIME_SYSTEM":"UTC","REV_AT_EPOCH":"130","MEAN_MOTION":"15.08804675","ECCENTRICITY":"0.00016140","ARG_OF_PERICENTER":"49.0041","EPHEMERIS_TYPE":"0","PERIAPSIS":"538.737","NORAD_CAT_ID":"51756","MEAN_MOTION_DDOT":"0.0000000000000","SITE":"AFETR","PERIOD":"95.440","COUNTRY_CODE":"US","ELEMENT_SET_NO":"999","APOAPSIS":"540.970","LAUNCH_DATE":"2022-02-21","TLE_LINE2":"2 51756  53.2179 289.7575 0001614  49.0041  44.4616 15.08804675  1309","DECAY_DATE":null,"RCS_SIZE":"LARGE","CLASSIFICATION_TYPE":"U","GP_ID":"212010895","MEAN_MOTION_DOT":"0.00029308","BSTAR":"0.00185370000000","OBJECT_ID":"2022-016AU","INCLINATION":"53.2179","OBJECT_TYPE":"PAYLOAD","FILE":"3563022","TLE_LINE1":"1 51756U 22016AU  22250.91667824  .00029308  00000-0  18537-2 0  9997","CENTER_NAME":"EARTH","EPOCH":"2022-09-07T22:00:00.999936","MEAN_ELEMENT_THEORY":"SGP4","MEAN_ANOMALY":"44.4616","REF_FRAME":"TEME"},{"MEAN_ELEMENT_THEORY":"SGP4","EPOCH":"2022-09-07T22:00:00.999936","CENTER_NAME":"EARTH","REF_FRAME":"TEME","MEAN_ANOMALY":"72.8911","TLE_LINE1":"1 51757U 22016AV  22250.91667824  .00028603  00000-0  18107-2 0  9998","FILE":"3563022","OBJECT_TYPE":"PAYLOAD","BSTAR":"0.00181070000000","INCLINATION":"53.2176","OBJECT_ID":"2022-016AV","DECAY_DATE":null,"TLE_LINE2":"2 51757  53.2176 289.7548 0001702  40.6481  72.8911 15.08784020  1304","RCS_SIZE":"LARGE","LAUNCH_DATE":"2022-02-21","GP_ID":"212011148","MEAN_MOTION_DOT":"0.00028603","CLASSIFICATION_TYPE":"U","MEAN_MOTION_DDOT":"0.0000000000000","NORAD_CAT_ID":"51757","PERIAPSIS":"538.739","APOAPSIS":"541.094","COUNTRY_CODE":"US","ELEMENT_SET_NO":"999","SITE":"AFETR","PERIOD":"95.441","ARG_OF_PERICENTER":"40.6481","EPHEMERIS_TYPE":"0","RA_OF_ASC_NODE":"289.7548","SEMIMAJOR_AXIS":"6918.052","OBJECT_NAME":"STARLINK-3459","MEAN_MOTION":"15.08784020","ECCENTRICITY":"0.00017020","TIME_SYSTEM":"UTC","REV_AT_EPOCH":"130"},{"OBJECT_TYPE":"PAYLOAD","BSTAR":"0.00178190000000","INCLINATION":"53.2168","OBJECT_ID":"2022-016AW","EPOCH":"2022-09-07T22:00:00.999936","CENTER_NAME":"EARTH","MEAN_ELEMENT_THEORY":"SGP4","MEAN_ANOMALY":"72.9154","REF_FRAME":"TEME","FILE":"3563022","TLE_LINE1":"1 51758U 22016AW  22250.91667824  .00028165  00000-0  17819-2 0  9991","ARG_OF_PERICENTER":"55.3652","EPHEMERIS_TYPE":"0","SEMIMAJOR_AXIS":"6917.959","RA_OF_ASC_NODE":"289.7487","OBJECT_NAME":"STARLINK-3458","TIME_SYSTEM":"UTC","REV_AT_EPOCH":"130","MEAN_MOTION":"15.08814319","ECCENTRICITY":"0.00015660","LAUNCH_DATE":"2022-02-21","RCS_SIZE":"LARGE","TLE_LINE2":"2 51758  53.2168 289.7487 0001566  55.3652  72.9154 15.08814319  1304","DECAY_DATE":null,"CLASSIFICATION_TYPE":"U","GP_ID":"212011897","MEAN_MOTION_DOT":"0.00028165","MEAN_MOTION_DDOT":"0.0000000000000","NORAD_CAT_ID":"51758","PERIAPSIS":"538.741","COUNTRY_CODE":"US","APOAPSIS":"540.907","ELEMENT_SET_NO":"999","SITE":"AFETR","PERIOD":"95.439"},{"PERIAPSIS":"538.827","NORAD_CAT_ID":"51759","MEAN_MOTION_DDOT":"0.0000000000000","PERIOD":"95.438","SITE":"AFETR","COUNTRY_CODE":"US","ELEMENT_SET_NO":"999","APOAPSIS":"540.755","RCS_SIZE":"LARGE","TLE_LINE2":"2 51759  53.2176 289.7539 0001394  68.8109  64.6264 15.08825073  1306","DECAY_DATE":null,"LAUNCH_DATE":"2022-02-21","MEAN_MOTION_DOT":"0.00027708","GP_ID":"212010147","CLASSIFICATION_TYPE":"U","OBJECT_NAME":"STARLINK-3456","RA_OF_ASC_NODE":"289.7539","SEMIMAJOR_AXIS":"6917.926","MEAN_MOTION":"15.08825073","ECCENTRICITY":"0.00013940","TIME_SYSTEM":"UTC","REV_AT_EPOCH":"130","ARG_OF_PERICENTER":"68.8109","EPHEMERIS_TYPE":"0","TLE_LINE1":"1 51759U 22016AX  22250.91667824  .00027708  00000-0  17529-2 0  9992","FILE":"3563022","MEAN_ELEMENT_THEORY":"SGP4","EPOCH":"2022-09-07T22:00:00.999936","CENTER_NAME":"EARTH","REF_FRAME":"TEME","MEAN_ANOMALY":"64.6264","BSTAR":"0.00175290000000","OBJECT_ID":"2022-016AX","INCLINATION":"53.2176","OBJECT_TYPE":"PAYLOAD"},{"INCLINATION":"53.2171","OBJECT_ID":"2022-017A","BSTAR":"-0.00356100000000","OBJECT_TYPE":"PAYLOAD","FILE":"3563022","TLE_LINE1":"1 51768U 22017A   22250.91667824 -.00056539  00000-0 -35610-2 0  9990","MEAN_ANOMALY":"270.7772","REF_FRAME":"TEME","CENTER_NAME":"EARTH","EPOCH":"2022-09-07T22:00:00.999936","MEAN_ELEMENT_THEORY":"SGP4","TIME_SYSTEM":"UTC","REV_AT_EPOCH":"130","ECCENTRICITY":"0.00015330","MEAN_MOTION":"15.08854420","SEMIMAJOR_AXIS":"6917.836","RA_OF_ASC_NODE":"319.7503","OBJECT_NAME":"STARLINK-3622","EPHEMERIS_TYPE":"0","ARG_OF_PERICENTER":"57.7886","ELEMENT_SET_NO":"999","COUNTRY_CODE":"US","APOAPSIS":"540.762","PERIOD":"95.437","SITE":"AFWTR","MEAN_MOTION_DDOT":"0.0000000000000","PERIAPSIS":"538.641","NORAD_CAT_ID":"51768","CLASSIFICATION_TYPE":"U","GP_ID":"212010397","MEAN_MOTION_DOT":"-0.00056539","LAUNCH_DATE":"2022-02-25","DECAY_DATE":null,"TLE_LINE2":"2 51768  53.2171 319.7503 0001533  57.7886 270.7772 15.08854420  1302","RCS_SIZE":"LARGE"},{"OBJECT_TYPE":"PAYLOAD","BSTAR":"-0.00071016000000","INCLINATION":"53.2176","OBJECT_ID":"2022-017B","CENTER_NAME":"EARTH","EPOCH":"2022-09-07T22:00:00.999936","MEAN_ELEMENT_THEORY":"SGP4","MEAN_ANOMALY":"306.8972","REF_FRAME":"TEME","FILE":"3563022","TLE_LINE1":"1 51769U 22017B   22250.91667824 -.00011573  00000-0 -71016-3 0  9991","ARG_OF_PERICENTER":"61.5574","EPHEMERIS_TYPE":"0","RA_OF_ASC_NODE":"319.7533","SEMIMAJOR_AXIS":"6917.870","OBJECT_NAME":"STARLINK-3621","REV_AT_EPOCH":"130","TIME_SYSTEM":"UTC","ECCENTRICITY":"0.00015140","MEAN_MOTION":"15.08843300","LAUNCH_DATE":"2022-02-25","TLE_LINE2":"2 51769  53.2176 319.7533 0001514  61.5574 306.8972 15.08843300  1305","RCS_SIZE":"LARGE","DECAY_DATE":null,"CLASSIFICATION_TYPE":"U","MEAN_MOTION_DOT":"-0.00011573","GP_ID":"212011647","MEAN_MOTION_DDOT":"0.0000000000000","PERIAPSIS":"538.688","NORAD_CAT_ID":"51769","ELEMENT_SET_NO":"999","COUNTRY_CODE":"US","APOAPSIS":"540.783","PERIOD":"95.437","SITE":"AFWTR"}];
